BEIDOU 3 (C01)          
1 36287U 10001A   21289.88829236 -.00000296  00000-0  00000+0 0  9993
2 36287   1.6834  41.4196 0002864  77.1003   7.3010  1.00268749 43075
BEIDOU 5 (C06)          
1 36828U 10036A   21290.39460295 -.00000135  00000-0  00000+0 0  9998
2 36828  54.1804 178.4678 0023207 178.5273 278.2625  1.00268284 41142
BEIDOU 6 (C04)          
1 37210U 10057A   21290.05975159 -.00000127  00000-0  00000+0 0  9991
2 37210   0.7511  38.7329 0004391 143.7801  24.7541  1.00272453 40193
BEIDOU 7 (C07)          
1 37256U 10068A   21290.25413764 -.00000192  00000-0  00000+0 0  9996
2 37256  50.6463 292.5479 0017564 190.6874 103.0442  1.00270068 39702
BEIDOU 8 (C08)          
1 37384U 11013A   21289.86051912 -.00000180  00000-0  00000+0 0  9994
2 37384  59.9470  56.6842 0019322 181.7324 203.2437  1.00274082 38584
BEIDOU 9 (C09)          
1 37763U 11038A   21290.03602128 -.00000098  00000-0  00000+0 0  9992
2 37763  54.4669 180.9325 0086540 226.5671  85.8302  1.00285170 37552
BEIDOU 10 (C10)         
1 37948U 11073A   21289.32759002 -.00000139  00000-0  00000+0 0  9996
2 37948  50.7594 292.1862 0078921 217.9109  88.5993  1.00265941 36301
BEIDOU 11 (C05)         
1 38091U 12008A   21289.88980809  .00000042  00000-0  00000+0 0  9999
2 38091   1.8147  70.4222 0003028 319.3364  14.9489  1.00275020 35384
BEIDOU 12 (C11)         
1 38250U 12018A   21289.77655144 -.00000112  00000-0  00000+0 0  9995
2 38250  56.7445   1.6087 0023555 245.4874  30.4362  1.86234330 64544
BEIDOU 13 (C12)         
1 38251U 12018B   21290.24828189 -.00000111  00000-0  00000+0 0  9990
2 38251  56.6643   0.9345 0014528 244.9116  31.6167  1.86234115 64554
BEIDOU 15 (C14)         
1 38775U 12050B   21290.33023396  .00000065  00000-0  00000+0 0  9991
2 38775  55.2643 119.8742 0012213 329.6126 199.0664  1.86231337 61935
BEIDOU 16 (C02)         
1 38953U 12059A   21290.09247003 -.00000190  00000-0  00000+0 0  9994
2 38953   1.3857  84.0718 0009360 281.6454 137.4901  1.00270521 32963
BEIDOU 17 (C31)         
1 40549U 15019A   21289.83438720 -.00000148  00000-0  00000+0 0  9998
2 40549  52.2986 315.5851 0038146 189.6777 273.8711  1.00295188 23997
BEIDOU 18 (C57)         
1 40748U 15037A   21289.84329678 -.00000111  00000-0  00000+0 0  9991
2 40748  55.9232 359.9622 0001020   5.8772 268.8977  1.86233454 42378
BEIDOU 19 (C58)         
1 40749U 15037B   21290.18244035 -.00000111  00000-0  00000+0 0  9994
2 40749  55.9261 359.9400 0003706 287.6334 350.0685  1.86232103 42372
BEIDOU 20 (C18)         
1 40938U 15053A   21289.44823716 -.00000117  00000-0  00000+0 0  9994
2 40938  51.8819 278.6730 0047736 196.5871 165.0798  1.00256314 22254
BEIDOU IGSO-6 (C13)     
1 41434U 16021A   21289.57724394 -.00000152  00000-0  00000-0 0  9998
2 41434  57.7425  55.3806 0044070 211.0925  61.0654  1.00288666 20382
BEIDOU-2 G7 (C03)       
1 41586U 16037A   21290.31299310 -.00000368  00000-0  00000+0 0  9990
2 41586   1.9616  69.3826 0008021  12.4517 167.4491  1.00274048 19697
BEIDOU-3 M1 (C19)       
1 43001U 17069A   21290.47080838  .00000066  00000-0  00000+0 0  9994
2 43001  55.4194 119.8370 0007465 292.5865 126.3872  1.86231813 26871
BEIDOU-3 M2 (C20)       
1 43002U 17069B   21290.25868556  .00000066  00000-0  00000+0 0  9992
2 43002  55.4185 119.8794 0006310 324.5605 355.4922  1.86231477 26853
BEIDOU-3 M3 (C27)       
1 43107U 18003A   21290.13078829 -.00000113  00000-0  00000+0 0  9994
2 43107  55.3683   0.9770 0003610  61.9098 338.3207  1.86232536 25620
BEIDOU-3 M4 (C28)       
1 43108U 18003B   21289.99958271 -.00000113  00000-0  00000+0 0  9995
2 43108  55.3622   0.9717 0003955 232.1443 125.3026  1.86232583 25617
BEIDOU-3 M5 (C21)       
1 43207U 18018A   21289.91368758  .00000065  00000-0  00000+0 0  9993
2 43207  55.3775 119.9794 0004648   1.9237 358.1480  1.86231558 25009
BEIDOU-3 M6 (C22)       
1 43208U 18018B   21289.98041341  .00000065  00000-0  00000+0 0  9997
2 43208  55.3773 119.9806 0005586 310.3533  49.6669  1.86231669 25004
BEIDOU-3 M7 (C29)       
1 43245U 18029A   21289.57377141 -.00000111  00000-0  00000-0 0  9999
2 43245  55.2950 358.7825 0001071 201.2856  95.7662  1.86232705 24147
BEIDOU-3 M8 (C30)       
1 43246U 18029B   21289.81021477 -.00000111  00000-0  10000-3 0  9999
2 43246  55.2911 358.8047 0002930 341.6194 160.2681  1.86233013 24143
BEIDOU IGSO-7 (C16)     
1 43539U 18057A   21289.92082106 -.00000146  00000-0  00000+0 0  9996
2 43539  55.0611 177.8711 0040592 223.3607  68.8016  1.00284887 12065
BEIDOU-3 M9 (C23)       
1 43581U 18062A   21289.51624019 -.00000047  00000-0  00000-0 0  9990
2 43581  54.3584 240.4430 0005872 277.9479 237.1896  1.86231934 21888
BEIDOU-3 M10 (C24)      
1 43582U 18062B   21290.05512594 -.00000051  00000-0  00000+0 0  9990
2 43582  54.3583 240.4143 0005752 337.4010 270.5149  1.86232352 21897
BEIDOU-3 M11 (C25)      
1 43602U 18067A   21289.98733942 -.00000051  00000-0  00000+0 0  9990
2 43602  54.4358 239.0094 0007166 354.1425 250.2818  1.86231571 21381
BEIDOU-3 M12 (C26)      
1 43603U 18067B   21290.12654546 -.00000052  00000-0  00000+0 0  9992
2 43603  54.4331 238.9726 0004635 339.0064 269.1807  1.86231478 21408
BEIDOU-3 M13 (C32)      
1 43622U 18072A   21289.44285221  .00000063  00000-0  00000-0 0  9994
2 43622  55.3431 119.5580 0004163 288.6234 251.1552  1.86231852 20904
BEIDOU-3 M14 (C33)      
1 43623U 18072B   21290.05700476  .00000065  00000-0  00000+0 0  9999
2 43623  55.3463 119.5286 0002962 336.8580 344.9155  1.86231860 20918
BEIDOU-3 M15 (C34)      
1 43647U 18078A   21290.18213796 -.00000111  00000-0  10000-3 0  9997
2 43647  55.1881 358.9403 0005271 352.1595 308.7314  1.86232587 20427
BEIDOU-3 M16 (C35)      
1 43648U 18078B   21290.50813730 -.00000111  00000-0  00000+0 0  9993
2 43648  55.1845 358.9351 0003064   7.3682  60.3369  1.86232320 20453
BEIDOU-3 G1 (C59)       
1 43683U 18085A   21290.31892394 -.00000293  00000-0  00000+0 0  9993
2 43683   0.9003 210.1875 0004542  27.3595  43.3551  1.00274510 10965
BEIDOU-3 M17 (C36)      
1 43706U 18093A   21290.12843755 -.00000051  00000-0  00000+0 0  9996
2 43706  54.4369 240.2869 0011147 274.7103 155.7822  1.86231892 19798
BEIDOU-3 M18 (C37)      
1 43707U 18093B   21289.72090815 -.00000049  00000-0  00000+0 0  9999
2 43707  54.4402 240.2944 0009841 295.8734 312.3597  1.86232185 19788
BEIDOU-3 IGSO-1 (C38)   
1 44204U 19023A   21289.84967422 -.00000215  00000-0  00000+0 0  9991
2 44204  56.2024  55.6013 0023272 186.8993 207.7002  1.00284121  9270
BEIDOU-2 G8             
1 44231U 19027A   21289.81734438 -.00000263  00000-0  00000+0 0  9994
2 44231   0.3365  45.4939 0007408 154.3843 264.4092  1.00274993  8981
BEIDOU-3 IGSO-2 (C39)   
1 44337U 19035A   21289.59146742 -.00000146  00000-0  00000-0 0  9991
2 44337  55.0954 173.9062 0020248 180.7099   3.2765  1.00275645  8606
BEIDOU-3 M23 (C45)      
1 44542U 19061A   21289.78844196 -.00000049  00000-0  10000-3 0  9993
2 44542  54.6655 240.3958 0009359 323.1451 283.0173  1.86231574 14048
BEIDOU-3 M24 (C46)      
1 44543U 19061B   21289.92142528 -.00000050  00000-0  10000-3 0  9992
2 44543  54.6629 240.3600 0006878 310.2603 296.0667  1.86231856 14048
BEIDOU-3 IGSO-3         
1 44709U 19073A   21289.84401914 -.00000158  00000-0  00000+0 0  9991
2 44709  57.6523 298.9050 0020112 186.5857 323.9042  1.00280537  7368
BEIDOU-3 M21            
1 44793U 19078A   21290.35158285 -.00000111  00000-0  10000-3 0  9991
2 44793  55.0377 358.9854 0004973   2.4691   6.3081  1.86232355 12920
BEIDOU-3 M22            
1 44794U 19078B   21289.93242473 -.00000112  00000-0  00000+0 0  9993
2 44794  55.0116 358.9967 0003120 355.2682   3.6908  1.86232850 12905
BEIDOU-3 M19            
1 44864U 19090A   21290.12362983  .00000065  00000-0  00000+0 0  9993
2 44864  55.2780 119.7588 0014323 265.5350  56.2123  1.86231970 12495
BEIDOU-3 M20            
1 44865U 19090B   21289.50690741  .00000064  00000-0  00000-0 0  9990
2 44865  55.2805 119.8112 0012681 282.3430  75.8224  1.86231929 12458
BEIDOU-3 G2             
1 45344U 20017A   21290.09159785 -.00000160  00000-0  00000+0 0  9995
2 45344   2.2860 341.1653 0003057 180.7049 336.9558  1.00271171  6181
BEIDOU-3 G3             
1 45807U 20040A   21290.02592259 -.00000373  00000-0  00000+0 0  9991
2 45807   2.0054 299.3163 0009765 338.4261 227.7938  1.00277437  4995
